{"type":"FeatureCollection","features":[{"type":"Feature","geometry":{"type":"Polygon","coordinates":[[[70.43304411483693,10.408578995182026,0.0],[70.43304411483693,15.408578995182024,0.0],[75.43304411483693,15.408578995182024,0.0],[75.43304411483693,10.408578995182026,0.0],[70.43304411483693,10.408578995182026,0.0]]]},"properties":{},"id":"0"},{"type":"Feature","geometry":{"type":"Polygon","coordinates":[[[36.99383394501617,23.768055614318058,0.0],[36.99383394501617,28.768055614318058,0.0],[41.99383394501617,28.768055614318058,0.0],[41.99383394501617,23.768055614318058,0.0],[36.99383394501617,23.768055614318058,0.0]]]},"properties":{},"id":"1"},{"type":"Feature","geometry":{"type":"Polygon","coordinates":[[[81.07593429531966,3.2314746578181395,0.0],[81.07593429531966,8.23147465781814,0.0],[86.07593429531966,8.23147465781814,0.0],[86.07593429531966,3.2314746578181395,0.0],[81.07593429531966,3.2314746578181395,0.0]]]},"properties":{},"id":"10"},{"type":"Feature","geometry":{"type":"Polygon","coordinates":[[[46.007612924371955,74.69333798096078,0.0],[46.007612924371955,79.69333798096078,0.0],[51.00761292437196,79.69333798096078,0.0],[51.00761292437196,74.69333798096078,0.0],[46.007612924371955,74.69333798096078,0.0]]]},"properties":{},"id":"11"},{"type":"Feature","geometry":{"type":"Polygon","coordinates":[[[84.23927533970532,66.15603781761735,0.0],[84.23927533970532,71.15603781761735,0.0],[89.23927533970532,71.15603781761735,0.0],[89.23927533970532,66.15603781761735,0.0],[84.23927533970532,66.15603781761735,0.0]]]},"properties":{},"id":"12"},{"type":"Feature","geometry":{"type":"Polygon","coordinates":[[[50.65469642255432,83.86227481443986,0.0],[50.65469642255432,88.86227481443986,0.0],[55.65469642255432,88.86227481443986,0.0],[55.65469642255432,83.86227481443986,0.0],[50.65469642255432,83.86227481443986,0.0]]]},"properties":{},"id":"13"},{"type":"Feature","geometry":{"type":"Polygon","coordinates":[[[17.044949145619626,13.319434841955372,0.0],[17.044949145619626,18.31943484195537,0.0],[22.044949145619626,18.31943484195537,0.0],[22.044949145619626,13.319434841955372,0.0],[17.044949145619626,13.319434841955372,0.0]]]},"properties":{},"id":"14"},{"type":"Feature","geometry":{"type":"Polygon","coordinates":[[[21.500676339808365,25.464843553052024,0.0],[21.500676339808365,30.464843553052024,0.0],[26.500676339808365,30.464843553052024,0.0],[26.500676339808365,25.464843553052024,0.0],[21.500676339808365,25.464843553052024,0.0]]]},"properties":{},"id":"15"},{"type":"Feature","geometry":{"type":"Polygon","coordinates":[[[70.40530066390717,86.92361765306117,0.0],[70.40530066390717,91.92361765306117,0.0],[75.40530066390717,91.92361765306117,0.0],[75.40530066390717,86.92361765306117,0.0],[70.40530066390717,86.92361765306117,0.0]]]},"properties":{},"id":"16"},{"type":"Feature","geometry":{"type":"Polygon","coordinates":[[[81.42056658978358,43.81913979897802,0.0],[81.42056658978358,48.81913979897802,0.0],[86.42056658978358,48.81913979897802,0.0],[86.42056658978358,43.81913979897802,0.0],[81.42056658978358,43.81913979897802,0.0]]]},"properties":{},"id":"17"},{"type":"Feature","geometry":{"type":"Polygon","coordinates":[[[47.81661235963583,38.86337711310925,0.0],[47.81661235963583,43.86337711310925,0.0],[52.81661235963583,43.86337711310925,0.0],[52.81661235963583,38.86337711310925,0.0],[47.81661235963583,38.86337711310925,0.0]]]},"properties":{},"id":"18"},{"type":"Feature","geometry":{"type":"Polygon","coordinates":[[[70.7562961232269,31.56422602632568,0.0],[70.7562961232269,36.564226026325684,0.0],[75.7562961232269,36.564226026325684,0.0],[75.7562961232269,31.56422602632568,0.0],[70.7562961232269,31.56422602632568,0.0]]]},"properties":{},"id":"19"},{"type":"Feature","geometry":{"type":"Polygon","coordinates":[[[36.64683579691546,33.824809777320695,0.0],[36.64683579691546,38.824809777320695,0.0],[41.64683579691546,38.824809777320695,0.0],[41.64683579691546,33.824809777320695,0.0],[36.64683579691546,33.824809777320695,0.0]]]},"properties":{},"id":"2"},{"type":"Feature","geometry":{"type":"Polygon","coordinates":[[[61.42498007114942,34.79210979466353,0.0],[61.42498007114942,39.79210979466353,0.0],[66.42498007114942,39.79210979466353,0.0],[66.42498007114942,34.79210979466353,0.0],[61.42498007114942,34.79210979466353,0.0]]]},"properties":{},"id":"20"},{"type":"Feature","geometry":{"type":"Polygon","coordinates":[[[89.29414529014934,3.5109103882683,0.0],[89.29414529014934,8.5109103882683,0.0],[94.29414529014934,8.5109103882683,0.0],[94.29414529014934,3.5109103882683,0.0],[89.29414529014934,3.5109103882683,0.0]]]},"properties":{},"id":"21"},{"type":"Feature","geometry":{"type":"Polygon","coordinates":[[[64.99328169090914,58.667684944442826,0.0],[64.99328169090914,63.667684944442826,0.0],[69.99328169090914,63.667684944442826,0.0],[69.99328169090914,58.667684944442826,0.0],[64.99328169090914,58.667684944442826,0.0]]]},"properties":{},"id":"22"},{"type":"Feature","geometry":{"type":"Polygon","coordinates":[[[37.78249394838043,6.1581970788740685,0.0],[37.78249394838043,11.158197078874068,0.0],[42.78249394838043,11.158197078874068,0.0],[42.78249394838043,6.1581970788740685,0.0],[37.78249394838043,6.1581970788740685,0.0]]]},"properties":{},"id":"23"},{"type":"Feature","geometry":{"type":"Polygon","coordinates":[[[35.8304047925499,64.46523695420694,0.0],[35.8304047925499,69.46523695420694,0.0],[40.8304047925499,69.46523695420694,0.0],[40.8304047925499,64.46523695420694,0.0],[35.8304047925499,64.46523695420694,0.0]]]},"properties":{},"id":"24"},{"type":"Feature","geometry":{"type":"Polygon","coordinates":[[[71.6592933916792,47.92350341931801,0.0],[71.6592933916792,52.92350341931801,0.0],[76.6592933916792,52.92350341931801,0.0],[76.6592933916792,47.92350341931801,0.0],[71.6592933916792,47.92350341931801,0.0]]]},"properties":{},"id":"25"},{"type":"Feature","geometry":{"type":"Polygon","coordinates":[[[2.820214430449724,34.649685553631485,0.0],[2.820214430449724,39.64968555363149,0.0],[7.820214430449724,39.64968555363149,0.0],[7.820214430449724,34.649685553631485,0.0],[2.820214430449724,34.649685553631485,0.0]]]},"properties":{},"id":"26"},{"type":"Feature","geometry":{"type":"Polygon","coordinates":[[[17.717338875323037,52.38479274756137,0.0],[17.717338875323037,57.38479274756137,0.0],[22.717338875323037,57.38479274756137,0.0],[22.717338875323037,52.38479274756137,0.0],[17.717338875323037,52.38479274756137,0.0]]]},"properties":{},"id":"27"},{"type":"Feature","geometry":{"type":"Polygon","coordinates":[[[83.76592956745871,21.36485051621139,0.0],[83.76592956745871,26.36485051621139,0.0],[88.76592956745871,26.36485051621139,0.0],[88.76592956745871,21.36485051621139,0.0],[83.76592956745871,21.36485051621139,0.0]]]},"properties":{},"id":"28"},{"type":"Feature","geometry":{"type":"Polygon","coordinates":[[[89.05049134531116,54.46608268631417,0.0],[89.05049134531116,59.46608268631417,0.0],[94.05049134531116,59.46608268631417,0.0],[94.05049134531116,54.46608268631417,0.0],[89.05049134531116,54.46608268631417,0.0]]]},"properties":{},"id":"29"},{"type":"Feature","geometry":{"type":"Polygon","coordinates":[[[88.99641357771026,12.267265159965106,0.0],[88.99641357771026,17.267265159965106,0.0],[93.99641357771026,17.267265159965106,0.0],[93.99641357771026,12.267265159965106,0.0],[88.99641357771026,12.267265159965106,0.0]]]},"properties":{},"id":"3"},{"type":"Feature","geometry":{"type":"Polygon","coordinates":[[[77.09035617735479,78.25755869547189,0.0],[77.09035617735479,83.25755869547189,0.0],[82.09035617735479,83.25755869547189,0.0],[82.09035617735479,78.25755869547189,0.0],[77.09035617735479,78.25755869547189,0.0]]]},"properties":{},"id":"30"},{"type":"Feature","geometry":{"type":"Polygon","coordinates":[[[33.2623946557835,50.57438122690675,0.0],[33.2623946557835,55.57438122690675,0.0],[38.2623946557835,55.57438122690675,0.0],[38.2623946557835,50.57438122690675,0.0],[33.2623946557835,50.57438122690675,0.0]]]},"properties":{},"id":"31"},{"type":"Feature","geometry":{"type":"Polygon","coordinates":[[[16.44076737657075,88.3863510382157,0.0],[16.44076737657075,93.3863510382157,0.0],[21.44076737657075,93.3863510382157,0.0],[21.44076737657075,88.3863510382157,0.0],[16.44076737657075,88.3863510382157,0.0]]]},"properties":{},"id":"32"},{"type":"Feature","geometry":{"type":"Polygon","coordinates":[[[3.750509763889614,52.66316564815533,0.0],[3.750509763889614,57.66316564815533,0.0],[8.750509763889614,57.66316564815533,0.0],[8.750509763889614,52.66316564815533,0.0],[3.750509763889614,52.66316564815533,0.0]]]},"properties":{},"id":"33"},{"type":"Feature","geometry":{"type":"Polygon","coordinates":[[[88.82682205959539,39.139787378060824,0.0],[88.82682205959539,44.139787378060824,0.0],[93.82682205959539,44.139787378060824,0.0],[93.82682205959539,39.139787378060824,0.0],[88.82682205959539,39.139787378060824,0.0]]]},"properties":{},"id":"34"},{"type":"Feature","geometry":{"type":"Polygon","coordinates":[[[9.181026563158838,74.4761499835829,0.0],[9.181026563158838,79.4761499835829,0.0],[14.181026563158838,79.4761499835829,0.0],[14.181026563158838,74.4761499835829,0.0],[9.181026563158838,74.4761499835829,0.0]]]},"properties":{},"id":"35"},{"type":"Feature","geometry":{"type":"Polygon","coordinates":[[[73.21038431478992,62.03455580786801,0.0],[73.21038431478992,67.034555807868,0.0],[78.21038431478992,67.034555807868,0.0],[78.21038431478992,62.03455580786801,0.0],[73.21038431478992,62.03455580786801,0.0]]]},"properties":{},"id":"36"},{"type":"Feature","geometry":{"type":"Polygon","coordinates":[[[70.2027576466651,22.64481086494422,0.0],[70.2027576466651,27.64481086494422,0.0],[75.2027576466651,27.64481086494422,0.0],[75.2027576466651,22.64481086494422,0.0],[70.2027576466651,22.64481086494422,0.0]]]},"properties":{},"id":"37"},{"type":"Feature","geometry":{"type":"Polygon","coordinates":[[[60.58363969291266,76.89607957642485,0.0],[60.58363969291266,81.89607957642485,0.0],[65.58363969291267,81.89607957642485,0.0],[65.58363969291267,76.89607957642485,0.0],[60.58363969291266,76.89607957642485,0.0]]]},"properties":{},"id":"38"},{"type":"Feature","geometry":{"type":"Polygon","coordinates":[[[89.99946628579134,46.770038849777585,0.0],[89.99946628579134,51.770038849777585,0.0],[94.99946628579136,51.770038849777585,0.0],[94.99946628579136,46.770038849777585,0.0],[89.99946628579134,46.770038849777585,0.0]]]},"properties":{},"id":"39"},{"type":"Feature","geometry":{"type":"Polygon","coordinates":[[[8.435116177669642,17.297131291366796,0.0],[8.435116177669642,22.297131291366796,0.0],[13.435116177669642,22.297131291366796,0.0],[13.435116177669642,17.297131291366796,0.0],[8.435116177669642,17.297131291366796,0.0]]]},"properties":{},"id":"4"},{"type":"Feature","geometry":{"type":"Polygon","coordinates":[[[59.54100116865809,91.22584369696395,0.0],[59.54100116865809,96.22584369696395,0.0],[64.54100116865808,96.22584369696395,0.0],[64.54100116865808,91.22584369696395,0.0],[59.54100116865809,91.22584369696395,0.0]]]},"properties":{},"id":"40"},{"type":"Feature","geometry":{"type":"Polygon","coordinates":[[[46.527206387836976,29.41669084086776,0.0],[46.527206387836976,34.41669084086776,0.0],[51.527206387836976,34.41669084086776,0.0],[51.527206387836976,29.41669084086776,0.0],[46.527206387836976,29.41669084086776,0.0]]]},"properties":{},"id":"41"},{"type":"Feature","geometry":{"type":"Polygon","coordinates":[[[11.943314883187698,4.241151687772586,0.0],[11.943314883187698,9.241151687772586,0.0],[16.9433148831877,9.241151687772586,0.0],[16.9433148831877,4.241151687772586,0.0],[11.943314883187698,4.241151687772586,0.0]]]},"properties":{},"id":"42"},{"type":"Feature","geometry":{"type":"Polygon","coordinates":[[[10.804319534961781,39.54169141465552,0.0],[10.804319534961781,44.54169141465552,0.0],[15.804319534961781,44.54169141465552,0.0],[15.804319534961781,39.54169141465552,0.0],[10.804319534961781,39.54169141465552,0.0]]]},"properties":{},"id":"43"},{"type":"Feature","geometry":{"type":"Polygon","coordinates":[[[43.94063490666154,15.165425572008346,0.0],[43.94063490666154,20.165425572008346,0.0],[48.940634906661536,20.165425572008346,0.0],[48.940634906661536,15.165425572008346,0.0],[43.94063490666154,15.165425572008346,0.0]]]},"properties":{},"id":"44"},{"type":"Feature","geometry":{"type":"Polygon","coordinates":[[[25.27153910136424,43.94510076530823,0.0],[25.27153910136424,48.94510076530823,0.0],[30.27153910136424,48.94510076530823,0.0],[30.27153910136424,43.94510076530823,0.0],[25.27153910136424,43.94510076530823,0.0]]]},"properties":{},"id":"45"},{"type":"Feature","geometry":{"type":"Polygon","coordinates":[[[88.7716396736629,81.90002114530101,0.0],[88.7716396736629,86.90002114530101,0.0],[93.7716396736629,86.90002114530101,0.0],[93.7716396736629,81.90002114530101,0.0],[88.7716396736629,81.90002114530101,0.0]]]},"properties":{},"id":"46"},{"type":"Feature","geometry":{"type":"Polygon","coordinates":[[[51.51739763600044,5.2497243253390735,0.0],[51.51739763600044,10.249724325339074,0.0],[56.51739763600044,10.249724325339074,0.0],[56.51739763600044,5.2497243253390735,0.0],[51.51739763600044,5.2497243253390735,0.0]]]},"properties":{},"id":"47"},{"type":"Feature","geometry":{"type":"Polygon","coordinates":[[[27.594110800593384,35.57735610881808,0.0],[27.594110800593384,40.57735610881807,0.0],[32.594110800593384,40.57735610881807,0.0],[32.594110800593384,35.57735610881808,0.0],[27.594110800593384,35.57735610881808,0.0]]]},"properties":{},"id":"48"},{"type":"Feature","geometry":{"type":"Polygon","coordinates":[[[82.56722037388921,31.784014194635745,0.0],[82.56722037388921,36.784014194635745,0.0],[87.56722037388921,36.784014194635745,0.0],[87.56722037388921,31.784014194635745,0.0],[82.56722037388921,31.784014194635745,0.0]]]},"properties":{},"id":"49"},{"type":"Feature","geometry":{"type":"Polygon","coordinates":[[[91.3370061745999,28.434012881062387,0.0],[91.3370061745999,33.43401288106239,0.0],[96.33700617459992,33.43401288106239,0.0],[96.33700617459992,28.434012881062387,0.0],[91.3370061745999,28.434012881062387,0.0]]]},"properties":{},"id":"5"},{"type":"Feature","geometry":{"type":"Polygon","coordinates":[[[56.979039583529556,25.17021887820708,0.0],[56.979039583529556,30.17021887820708,0.0],[61.979039583529556,30.17021887820708,0.0],[61.979039583529556,25.17021887820708,0.0],[56.979039583529556,25.17021887820708,0.0]]]},"properties":{},"id":"6"},{"type":"Feature","geometry":{"type":"Polygon","coordinates":[[[63.329412125133345,49.88798005699812,0.0],[63.329412125133345,54.88798005699812,0.0],[68.32941212513335,54.88798005699812,0.0],[68.32941212513335,49.88798005699812,0.0],[63.329412125133345,49.88798005699812,0.0]]]},"properties":{},"id":"7"},{"type":"Feature","geometry":{"type":"Polygon","coordinates":[[[31.018365916453,17.383396214928766,0.0],[31.018365916453,22.383396214928766,0.0],[36.018365916453,22.383396214928766,0.0],[36.018365916453,17.383396214928766,0.0],[31.018365916453,17.383396214928766,0.0]]]},"properties":{},"id":"8"},{"type":"Feature","geometry":{"type":"Polygon","coordinates":[[[41.22444551125599,83.77788368039101,0.0],[41.22444551125599,88.77788368039101,0.0],[46.22444551125599,88.77788368039101,0.0],[46.22444551125599,83.77788368039101,0.0],[41.22444551125599,83.77788368039101,0.0]]]},"properties":{},"id":"9"}]}